HELIOS 1B               
1 25977U 99064A   21072.92743036  .00000069  00000-0  15759-4 0  9990
2 25977  98.3077 243.7193 0001571 144.4228 215.7089 14.82538511415048
TERRA                   
1 25994U 99068A   21073.18345664  .00000070  00000-0  25507-4 0  9991
2 25994  98.1835 149.3208 0001243  93.9069 293.5853 14.57124786129594
SL-16 R/B               
1 26070U 00006B   21072.91093136 -.00000270  00000-0 -11380-3 0  9992
2 26070  71.0039 327.0198 0014251  71.8142 288.4531 14.15469634 90769
MTI                     
1 26102U 00014A   21073.18901746  .00009361  00000-0  12056-3 0  9991
2 26102  97.4745 334.8101 0005964 326.7040  33.3842 15.59256521166495
TITAN 4B R/B            
1 26474U 00047B   21072.68838187  .00000226  00000-0  30328-4 0  9995
2 26474  67.9938  54.5307 0061085 262.1576  97.2630 14.96102069119512
ENVISAT                 
1 27386U 02009A   21072.98158043  .00000019  00000-0  19628-4 0  9997
2 27386  98.1460  71.9296 0001319  92.7682 321.2578 14.38016262997352
IDEFIX & ARIANE 42P R/B 
1 27422U 02021B   21072.90314125  .00000008  00000-0  19381-4 0  9993
2 27422  98.3913  29.3518 0012648 150.2516 209.9388 14.29310941983655
AQUA                    
1 27424U 02022A   21073.14141503  .00000106  00000-0  33488-4 0  9994
2 27424  98.2072  15.8746 0000713 138.4608 282.5535 14.57111862  3190
CZ-4B R/B               
1 27432U 02024C   21072.91770875 -.00000020  00000-0  13497-4 0  9993
2 27432  99.0902  85.7041 0051146 135.5246 288.7146 14.14105355971739
MIDORI II (ADEOS-II)    
1 27597U 02056A   21072.83850889  .00000036  00000-0  32209-4 0  9993
2 27597  98.5549  20.1161 0000359  33.3971 326.7232 14.27488234950244
H-2A R/B                
1 27601U 02056E   21073.10059219 -.00000045  00000-0 -17649-5 0  9992
2 27601  98.2001 100.5842 0071951 193.3120 232.8646 14.31990663953279
CZ-4B R/B               
1 28059U 03049C   21073.20085922  .00000038  00000-0  20729-4 0  9996
2 28059  98.4926 358.8106 0050825  35.0916 325.3610 14.52639338921971
CZ-2C R/B               
1 28222U 04012C   21072.92688150  .00000703  00000-0  45482-4 0  9991
2 28222  97.7165  42.8487 0046537 186.3045 238.1938 15.10745319926678
SL-16 R/B               
1 28353U 04021B   21072.76136051 -.00000281  00000-0 -12211-3 0  9992
2 28353  70.9987  94.5084 0007543 280.1879  79.8392 14.14236618865213
CZ-4B R/B               
1 28415U 04035C   21073.15749321  .00000024  00000-0  57850-5 0  9993
2 28415  97.5783 117.2326 0052148 151.0718 209.3418 15.07045765904253
CZ-2C R/B               
1 28480U 04046B   21072.90753199  .00000092  00000-0  49425-4 0  9990
2 28480  98.0565  92.5913 0142612 146.5622 279.1143 14.25745178848818
ARIANE 5 R/B            
1 28499U 04049H   21072.86037001  .00000123  00000-0  22271-4 0  9990
2 28499  98.0609 181.6645 0093238 122.2368 350.9319 14.80099188875947
CZ-2D R/B               
1 28738U 05024B   21072.63842547  .00000535  00000-0  34457-4 0  9990
2 28738  97.3675  92.0381 0011189 341.0579  19.0234 15.12302891862084
SUZAKU (ASTRO-EII)      
1 28773U 05025A   21072.64994396  .00001395  00000-0  62351-4 0  9990
2 28773  31.3821  65.5746 0004376  37.9062 322.1893 15.18166367864894
ALOS (DAICHI)           
1 28931U 06002A   21073.20538198  .00000165  00000-0  40989-4 0  9996
2 28931  97.8764  52.1691 0001450  30.6543 329.4741 14.62809116807138
H-2A R/B                
1 28932U 06002B   21073.05812469  .00000645  00000-0  64686-4 0  9999
2 28932  98.3323  84.5077 0088868 158.8713 268.2813 14.92469243821461
AKARI (ASTRO-F)         
1 28939U 06005A   21072.78709767  .00004891  00000-0  12373-3 0  9996
2 28939  98.2492  84.5621 0090568 100.7741 260.3711 15.36178787822219
RESURS-DK 1             
1 29228U 06021A   21072.82586758  .00000177  00000-0  20556-4 0  9990
2 29228  69.9348 222.1967 0003048   6.7585 353.3617 15.02655812813183
GENESIS 1               
1 29252U 06029A   21073.13435641  .00000445  00000-0  31319-4 0  9991
2 29252  64.5205 139.3087 0033362 335.3962  24.5567 15.18513796809128
CZ-4B R/B               
1 29507U 06046C   21073.08204545  .00000897  00000-0  74125-4 0  9997
2 29507  97.7214  99.5012 0048203 338.6331  21.2879 15.00696848785854
CZ-2C R/B               
1 31114U 07010B   21072.81004543  .00000090  00000-0  60730-4 0  9994
2 31114  98.2376 273.2164 0059278 200.7454 159.1317 14.19349846721214
COSMO-SKYMED 1          
1 31598U 07023A   21073.11483807 -.00000178  00000-0 -15843-4 0  9996
2 31598  97.8866 258.3589 0001439  85.8283 274.3091 14.82155600744770
GENESIS 2               
1 31789U 07028A   21072.64904753  .00000735  00000-0  46335-4 0  9995
2 31789  64.5070 183.0722 0022138 210.9254 149.0566 15.17663723756015
COSMOS 2428             
1 31792U 07029A   21073.21140734  .00000028  00000-0  41358-4 0  9990
2 31792  70.8912  66.1467 0005801 357.4926   2.6165 14.12239164706951
SL-16 R/B               
1 31793U 07029B   21073.22197458 -.00000093  00000-0 -23586-4 0  9994
2 31793  70.9778  39.6697 0002885 266.4012 187.5701 14.14447530707878
KORONAS-FOTON           
1 33504U 09003A   21073.17451605  .00000232  00000-0  10373-4 0  9994
2 33504  82.4419 314.4026 0020463  67.5602 292.7795 15.15900981668343
H-2A R/B                
1 38341U 12025E   21073.06648513  .00000283  00000-0  40434-4 0  9997
2 38341  98.5237 252.0344 0056602  86.0852 274.6829 14.84186723477441
CUSAT 2 & FALCON 9 R/B  
1 39271U 13055G   21072.86536441  .00008847  00000-0  20616-3 0  9990
2 39271  80.9680 336.5305 0575988  78.1432 288.3733 14.51321086389765
SL-4 R/B                
1 39679U 14021B   21073.02367206  .00000565  00000-0  45031-4 0  9994
2 39679  51.6155 296.0955 0170933 159.9871 200.7911 15.06798824379984
ALOS-2                  
1 39766U 14029A   21073.23096903 -.00000361  00000-0 -41424-4 0  9993
2 39766  97.9193 171.9653 0001506  85.8614 274.2763 14.79469109367587
CZ-2C R/B               
1 40306U 14071B   21073.15674353  .00007109  00000-0  14072-3 0  9997
2 40306  97.3606  28.9533 0012446 261.2712  98.7128 15.47325232355545
SL-27 R/B               
1 40354U 14084B   21072.78461298  .00001600  00000-0  39316-4 0  9993
2 40354  74.7384 190.6641 0038020 244.7231 115.0040 15.40858525349600
YAOGAN 29               
1 41038U 15069A   21073.04430127  .00000032  00000-0  11165-4 0  9994
2 41038  98.0333  66.9076 0002246  89.5552 270.5917 14.80491001286168
ASTRO-H (HITOMI)        
1 41337U 16012A   21073.19888073  .00000380  00000-0  23750-4 0  9997
2 41337  31.0052  99.3253 0012359 217.1614 142.8166 14.98798810278004
HXMT (HUIYAN)           
1 42758U 17034A   21073.14926752  .00000318  00000-0  33349-4 0  9998
2 42758  43.0191 356.2137 0010791 283.1066 219.1643 15.09094980206613
CZ-2C R/B               
1 43521U 18054D   21072.83351109  .00000772  00000-0  43497-4 0  9992
2 43521  35.1543 319.4249 0082516 333.7023  25.9515 15.11353163149924
AEOLUS                  
1 43600U 18066A   21072.95247819  .00045581  00000-0  18041-3 0  9991
2 43600  96.7194  81.2550 0007200 100.4850 259.7235 15.86619567148100
SAOCOM 1A               
1 43641U 18076A   21073.05577117  .00000050  00000-0  12828-4 0  9996
2 43641  97.8890 261.3339 0001483  80.4111 279.7272 14.82152508131534
CREW DRAGON DEMO-1 DEB  
1 44064U 19011B   21072.88098650  .00070393  00000-0  38293-3 0  9996
2 44064  51.6266  16.6366 0002363  50.1225 309.9984 15.79311166115248
SAOCOM 1B               
1 46265U 20059A   21073.08691986  .00000044  00000-0  12127-4 0  9994
2 46265  97.8868 260.4381 0001482  84.9901 275.1482 14.82152144 28934
CZ-2F R/B               
1 46390U 20063B   21073.14310977  .00056800  12242-4  18987-3 0  9998
2 46390  50.1996 122.4281 0010393  45.5574 314.6261 15.90487959 30238
2020-063G               
1 46395U 20063G   21072.65398682  .00022945  00000-0  10816-3 0  9998
2 46395  50.2035 130.0452 0009564  37.9762 322.1894 15.82894764 30081
